{
  "type": "FeatureCollection",
  "features": [
    {
      "type": "Feature",
      "properties": {
        "norad_id": 66919,
        "name": "HULIANWANG DIGUI-109",
        "group": "last-30-days",
        "lat": 8.434156916484108,
        "lon": 78.72707459895582,
        "alt_km": 875.9638905272377,
        "timestamp": "2025-12-23T22:42:31.702678+00:00",
        "meta_object_name": "HULIANWANG DIGUI-109",
        "meta_object_id": "2025-285E",
        "meta_epoch": "2025-12-23T07:16:44.859072",
        "meta_mean_motion": 14.03727249,
        "meta_eccentricity": 0.0007911,
        "meta_inclination": 50.0075,
        "meta_ra_of_asc_node": 74.196,
        "meta_arg_of_pericenter": 327.6524,
        "meta_mean_anomaly": 32.3894,
        "meta_ephemeris_type": 0,
        "meta_classification_type": "U",
        "meta_norad_cat_id": 66919,
        "meta_element_set_no": 999,
        "meta_rev_at_epoch": 239,
        "meta_bstar": 0.00012738944,
        "meta_mean_motion_dot": 5e-07,
        "meta_mean_motion_ddot": 0,
        "tle_line1": "1 66919U 25285E   25357.30329698  .00000050  00000+0  12739-3 0  9994",
        "tle_line2": "2 66919  50.0075  74.1960 0007911 327.6524  32.3894 14.03727249  2396"
      },
      "geometry": {
        "type": "Point",
        "coordinates": [
          78.72707459895582,
          8.434156916484108
        ]
      }
    },
    {
      "type": "Feature",
      "properties": {
        "norad_id": 66920,
        "name": "HULIANWANG DIGUI-110",
        "group": "last-30-days",
        "lat": 11.348352043203006,
        "lon": 81.27436298002543,
        "alt_km": 877.2749202765144,
        "timestamp": "2025-12-23T22:42:31.702688+00:00",
        "meta_object_name": "HULIANWANG DIGUI-110",
        "meta_object_id": "2025-285F",
        "meta_epoch": "2025-12-23T07:15:37.424736",
        "meta_mean_motion": 14.03683422,
        "meta_eccentricity": 0.00056191,
        "meta_inclination": 50.0119,
        "meta_ra_of_asc_node": 74.1987,
        "meta_arg_of_pericenter": 324.7806,
        "meta_mean_anomaly": 35.2727,
        "meta_ephemeris_type": 0,
        "meta_classification_type": "U",
        "meta_norad_cat_id": 66920,
        "meta_element_set_no": 999,
        "meta_rev_at_epoch": 239,
        "meta_bstar": 0.00011180537,
        "meta_mean_motion_dot": 2.5e-07,
        "meta_mean_motion_ddot": 0,
        "tle_line1": "1 66920U 25285F   25357.30251649  .00000025  00000+0  11181-3 0  9998",
        "tle_line2": "2 66920  50.0119  74.1987 0005619 324.7806  35.2727 14.03683422  2391"
      },
      "geometry": {
        "type": "Point",
        "coordinates": [
          81.27436298002543,
          11.348352043203006
        ]
      }
    },
    {
      "type": "Feature",
      "properties": {
        "norad_id": 66921,
        "name": "HULIANWANG DIGUI-111",
        "group": "last-30-days",
        "lat": 14.289280880691198,
        "lon": 83.91605323257397,
        "alt_km": 876.4895133017071,
        "timestamp": "2025-12-23T22:42:31.702698+00:00",
        "meta_object_name": "HULIANWANG DIGUI-111",
        "meta_object_id": "2025-285G",
        "meta_epoch": "2025-12-23T07:14:28.729824",
        "meta_mean_motion": 14.03632972,
        "meta_eccentricity": 0.00066992,
        "meta_inclination": 50.0124,
        "meta_ra_of_asc_node": 74.1979,
        "meta_arg_of_pericenter": 328.5764,
        "meta_mean_anomaly": 31.474,
        "meta_ephemeris_type": 0,
        "meta_classification_type": "U",
        "meta_norad_cat_id": 66921,
        "meta_element_set_no": 999,
        "meta_rev_at_epoch": 239,
        "meta_bstar": 0.00011450788,
        "meta_mean_motion_dot": 2.9e-07,
        "meta_mean_motion_ddot": 0,
        "tle_line1": "1 66921U 25285G   25357.30172141  .00000029  00000+0  11451-3 0  9992",
        "tle_line2": "2 66921  50.0124  74.1979 0006699 328.5764  31.4740 14.03632972  2390"
      },
      "geometry": {
        "type": "Point",
        "coordinates": [
          83.91605323257397,
          14.289280880691198
        ]
      }
    },
    {
      "type": "Feature",
      "properties": {
        "norad_id": 66922,
        "name": "HULIANWANG DIGUI-112",
        "group": "last-30-days",
        "lat": 18.36126758217161,
        "lon": 87.73106753513407,
        "alt_km": 875.5412965366368,
        "timestamp": "2025-12-23T22:42:31.702708+00:00",
        "meta_object_name": "HULIANWANG DIGUI-112",
        "meta_object_id": "2025-285H",
        "meta_epoch": "2025-12-23T07:12:56.364768",
        "meta_mean_motion": 14.03662978,
        "meta_eccentricity": 0.00065212,
        "meta_inclination": 50.0096,
        "meta_ra_of_asc_node": 74.1846,
        "meta_arg_of_pericenter": 339.2312,
        "meta_mean_anomaly": 20.8326,
        "meta_ephemeris_type": 0,
        "meta_classification_type": "U",
        "meta_norad_cat_id": 66922,
        "meta_element_set_no": 999,
        "meta_rev_at_epoch": 239,
        "meta_bstar": 0.0001238419,
        "meta_mean_motion_dot": 4.4e-07,
        "meta_mean_motion_ddot": 0,
        "tle_line1": "1 66922U 25285H   25357.30065237  .00000044  00000+0  12384-3 0  9993",
        "tle_line2": "2 66922  50.0096  74.1846 0006521 339.2312  20.8326 14.03662978  2395"
      },
      "geometry": {
        "type": "Point",
        "coordinates": [
          87.73106753513407,
          18.36126758217161
        ]
      }
    },
    {
      "type": "Feature",
      "properties": {
        "norad_id": 66923,
        "name": "HULIANWANG DIGUI-113",
        "group": "last-30-days",
        "lat": 22.803429939576223,
        "lon": 92.20986486264303,
        "alt_km": 876.0191712930446,
        "timestamp": "2025-12-23T22:42:31.702720+00:00",
        "meta_object_name": "HULIANWANG DIGUI-113",
        "meta_object_id": "2025-285J",
        "meta_epoch": "2025-12-23T07:11:13.456320",
        "meta_mean_motion": 14.03700887,
        "meta_eccentricity": 0.00051278,
        "meta_inclination": 50.0095,
        "meta_ra_of_asc_node": 74.18,
        "meta_arg_of_pericenter": 333.7511,
        "meta_mean_anomaly": 26.3133,
        "meta_ephemeris_type": 0,
        "meta_classification_type": "U",
        "meta_norad_cat_id": 66923,
        "meta_element_set_no": 999,
        "meta_rev_at_epoch": 239,
        "meta_bstar": 0.00011699168,
        "meta_mean_motion_dot": 3.4e-07,
        "meta_mean_motion_ddot": 0,
        "tle_line1": "1 66923U 25285J   25357.29946130  .00000034  00000+0  11699-3 0  9999",
        "tle_line2": "2 66923  50.0095  74.1800 0005127 333.7511  26.3133 14.03700887  2395"
      },
      "geometry": {
        "type": "Point",
        "coordinates": [
          92.20986486264303,
          22.803429939576223
        ]
      }
    },
    {
      "type": "Feature",
      "properties": {
        "norad_id": 66924,
        "name": "CZ-8A R/B",
        "group": "last-30-days",
        "lat": -13.413369758565612,
        "lon": -100.00166301748796,
        "alt_km": 738.072326170166,
        "timestamp": "2025-12-23T22:42:31.702730+00:00",
        "meta_object_name": "CZ-8A R/B",
        "meta_object_id": "2025-285K",
        "meta_epoch": "2025-12-23T05:01:55.865568",
        "meta_mean_motion": 14.30505767,
        "meta_eccentricity": 0.01192482,
        "meta_inclination": 50.0083,
        "meta_ra_of_asc_node": 71.5871,
        "meta_arg_of_pericenter": 143.6553,
        "meta_mean_anomaly": 217.2535,
        "meta_ephemeris_type": 0,
        "meta_classification_type": "U",
        "meta_norad_cat_id": 66924,
        "meta_element_set_no": 999,
        "meta_rev_at_epoch": 242,
        "meta_bstar": 5.5302115e-05,
        "meta_mean_motion_dot": -1e-07,
        "meta_mean_motion_ddot": 0,
        "tle_line1": "1 66924U 25285K   25357.20967437 -.00000010  00000+0  55302-4 0  9999",
        "tle_line2": "2 66924  50.0083  71.5871 0119248 143.6553 217.2535 14.30505767  2427"
      },
      "geometry": {
        "type": "Point",
        "coordinates": [
          -100.00166301748796,
          -13.413369758565612
        ]
      }
    },
    {
      "type": "Feature",
      "properties": {
        "norad_id": 66925,
        "name": "STARLINK-35945",
        "group": "last-30-days",
        "lat": -42.2938930776625,
        "lon": -48.604579387647185,
        "alt_km": 368.6737644556524,
        "timestamp": "2025-12-23T22:42:31.702740+00:00",
        "meta_object_name": "STARLINK-35945",
        "meta_object_id": "2025-286A",
        "meta_epoch": "2025-12-23T06:00:00.999648",
        "meta_mean_motion": 15.71263305,
        "meta_eccentricity": 9.74e-05,
        "meta_inclination": 53.159,
        "meta_ra_of_asc_node": 357.8349,
        "meta_arg_of_pericenter": 82.2238,
        "meta_mean_anomaly": 243.994,
        "meta_ephemeris_type": 0,
        "meta_classification_type": "U",
        "meta_norad_cat_id": 66925,
        "meta_element_set_no": 999,
        "meta_rev_at_epoch": 368,
        "meta_bstar": -0.017110669,
        "meta_mean_motion_dot": -0.01957553,
        "meta_mean_motion_ddot": 0,
        "tle_line1": "1 66925U 25286A   25357.25001157 -.01957553  00000+0 -17111-1 0  9992",
        "tle_line2": "2 66925  53.1590 357.8349 0000974  82.2238 243.9940 15.71263305  3688"
      },
      "geometry": {
        "type": "Point",
        "coordinates": [
          -48.604579387647185,
          -42.2938930776625
        ]
      }
    }
  ]
}